[{"OBJECT_NAME":"JILIN-1 06","OBJECT_ID":"2017-074C","EPOCH":"2026-03-09T22:46:57.173376","MEAN_MOTION":15.32444387,"ECCENTRICITY":0.00061285,"INCLINATION":97.4715,"RA_OF_ASC_NODE":171.0354,"ARG_OF_PERICENTER":223.0031,"MEAN_ANOMALY":137.0732,"EPHEMERIS_TYPE":0,"CLASSIFICATION_TYPE":"U","NORAD_CAT_ID":43024,"ELEMENT_SET_NO":999,"REV_AT_EPOCH":45863,"BSTAR":0.00028431628,"MEAN_MOTION_DOT":8.833e-5,"MEAN_MOTION_DDOT":0},{"OBJECT_NAME":"STARLINK-34482","OBJECT_ID":"2025-147AD","EPOCH":"2026-03-09T18:07:05.316960","MEAN_MOTION":15.30234539,"ECCENTRICITY":8.885e-5,"INCLINATION":53.1587,"RA_OF_ASC_NODE":242.3034,"ARG_OF_PERICENTER":71.6135,"MEAN_ANOMALY":288.4962,"EPHEMERIS_TYPE":0,"CLASSIFICATION_TYPE":"U","NORAD_CAT_ID":64782,"ELEMENT_SET_NO":999,"REV_AT_EPOCH":3880,"BSTAR":0.00088132818,"MEAN_MOTION_DOT":0.00025862,"MEAN_MOTION_DDOT":0}]
